{"type": "FeatureCollection", "features": [{"type": "Feature", "geometry": {"type": "Polygon", "coordinates": [[[38.95454095631157, 8.747635932351729], [38.954977363038054, 8.74763598448891], [38.9549773108837, 8.748070154549737], [38.95454090365168, 8.74807010240993], [38.95454095631157, 8.747635932351729]]]}, "properties": {"tile_id": "T0000", "risk": 0.396, "tier": "moderate", "dominant_disease": "septoria", "dominant_risk_driver": "septoria", "model_prob": 0.355, "uncertainty": 0.0518, "attention": 0.0985, "needs_expert_review": true, "recommendation": "Intensify monitoring: re-flight within 72 h and scout flagged tiles; watch the 7-day weather forecast for infection windows.", "urgency": "elevated - monitor within 72 h", "rescout_days": 7, "disease_note": "Prioritise lower-canopy lesions; protect the flag leaf at T0/T1 timing."}}, {"type": "Feature", "geometry": {"type": "Polygon", "coordinates": [[[38.954977363038054, 8.74763598448891], [38.955413769767226, 8.747636036123163], [38.95541371811841, 8.74807020618659], [38.9549773108837, 8.748070154549737], [38.954977363038054, 8.74763598448891]]]}, "properties": {"tile_id": "T0001", "risk": 0.44, "tier": "moderate", "dominant_disease": "septoria", "dominant_risk_driver": "stem_rust", "model_prob": 0.416, "uncertainty": 0.0651, "attention": 0.4908, "needs_expert_review": true, "recommendation": "Intensify monitoring: re-flight within 72 h and scout flagged tiles; watch the 7-day weather forecast for infection windows.", "urgency": "elevated - monitor within 72 h", "rescout_days": 7, "disease_note": "Prioritise lower-canopy lesions; protect the flag leaf at T0/T1 timing."}}, {"type": "Feature", "geometry": {"type": "Polygon", "coordinates": [[[38.955413769767226, 8.747636036123163], [38.955850176499055, 8.747636087254481], [38.955850125355774, 8.748070257320487], [38.95541371811841, 8.74807020618659], [38.955413769767226, 8.747636036123163]]]}, "properties": {"tile_id": "T0002", "risk": 0.409, "tier": "moderate", "dominant_disease": "septoria", "dominant_risk_driver": "septoria", "model_prob": 0.381, "uncertainty": 0.0515, "attention": 0.1495, "needs_expert_review": true, "recommendation": "Intensify monitoring: re-flight within 72 h and scout flagged tiles; watch the 7-day weather forecast for infection windows.", "urgency": "elevated - monitor within 72 h", "rescout_days": 7, "disease_note": "Prioritise lower-canopy lesions; protect the flag leaf at T0/T1 timing."}}, {"type": "Feature", "geometry": {"type": "Polygon", "coordinates": [[[38.955850176499055, 8.747636087254481], [38.95628658323353, 8.747636137882871], [38.95628653259578, 8.748070307951426], [38.955850125355774, 8.748070257320487], [38.955850176499055, 8.747636087254481]]]}, "properties": {"tile_id": "T0003", "risk": 0.366, "tier": "moderate", "dominant_disease": "stripe_rust", "dominant_risk_driver": "septoria", "model_prob": 0.307, "uncertainty": 0.0471, "attention": 0.0328, "needs_expert_review": false, "recommendation": "Intensify monitoring: re-flight within 72 h and scout flagged tiles; watch the 7-day weather forecast for infection windows.", "urgency": "elevated - monitor within 72 h", "rescout_days": 7, "disease_note": "Cool-season favourite: prioritise upper-canopy checking after cool, wet spells."}}, {"type": "Feature", "geometry": {"type": "Polygon", "coordinates": [[[38.95454100896874, 8.747201762283597], [38.95497741518972, 8.747201814418151], [38.954977363038054, 8.74763598448891], [38.95454095631157, 8.747635932351729], [38.95454100896874, 8.747201762283597]]]}, "properties": {"tile_id": "T0004", "risk": 0.51, "tier": "high", "dominant_disease": "stem_rust", "dominant_risk_driver": "stem_rust", "model_prob": 0.551, "uncertainty": 0.0696, "attention": 0.9108, "needs_expert_review": false, "recommendation": "Confirmatory scouting within 48 h; prepare the spray plan; re-fly the block in 5-7 days.", "urgency": "urgent - act within 48 h", "rescout_days": 5, "disease_note": "Ug99-race watch: if severity exceeds 10%, send samples for race typing."}}, {"type": "Feature", "geometry": {"type": "Polygon", "coordinates": [[[38.95497741518972, 8.747201814418151], [38.95541382141338, 8.747201866049803], [38.955413769767226, 8.747636036123163], [38.954977363038054, 8.74763598448891], [38.95497741518972, 8.747201814418151]]]}, "properties": {"tile_id": "T0005", "risk": 0.601, "tier": "high", "dominant_disease": "stem_rust", "dominant_risk_driver": "stem_rust", "model_prob": 0.733, "uncertainty": 0.0726, "attention": 0.9903, "needs_expert_review": false, "recommendation": "Confirmatory scouting within 48 h; prepare the spray plan; re-fly the block in 5-7 days.", "urgency": "urgent - act within 48 h", "rescout_days": 5, "disease_note": "Ug99-race watch: if severity exceeds 10%, send samples for race typing."}}, {"type": "Feature", "geometry": {"type": "Polygon", "coordinates": [[[38.95541382141338, 8.747201866049803], [38.95585022763971, 8.747201917178543], [38.955850176499055, 8.747636087254481], [38.955413769767226, 8.747636036123163], [38.95541382141338, 8.747201866049803]]]}, "properties": {"tile_id": "T0006", "risk": 0.401, "tier": "moderate", "dominant_disease": "stripe_rust", "dominant_risk_driver": "leaf_rust", "model_prob": 0.371, "uncertainty": 0.0531, "attention": 0.1352, "needs_expert_review": true, "recommendation": "Intensify monitoring: re-flight within 72 h and scout flagged tiles; watch the 7-day weather forecast for infection windows.", "urgency": "elevated - monitor within 72 h", "rescout_days": 7, "disease_note": "Cool-season favourite: prioritise upper-canopy checking after cool, wet spells."}}, {"type": "Feature", "geometry": {"type": "Polygon", "coordinates": [[[38.95585022763971, 8.747201917178543], [38.956286633868665, 8.747201967804381], [38.95628658323353, 8.747636137882871], [38.955850176499055, 8.747636087254481], [38.95585022763971, 8.747201917178543]]]}, "properties": {"tile_id": "T0007", "risk": 0.373, "tier": "moderate", "dominant_disease": "septoria", "dominant_risk_driver": "septoria", "model_prob": 0.309, "uncertainty": 0.0452, "attention": 0.0294, "needs_expert_review": false, "recommendation": "Intensify monitoring: re-flight within 72 h and scout flagged tiles; watch the 7-day weather forecast for infection windows.", "urgency": "elevated - monitor within 72 h", "rescout_days": 7, "disease_note": "Prioritise lower-canopy lesions; protect the flag leaf at T0/T1 timing."}}, {"type": "Feature", "geometry": {"type": "Polygon", "coordinates": [[[38.9545410616232, 8.746767592205531], [38.95497746733869, 8.746767644337458], [38.95497741518972, 8.747201814418151], [38.95454100896874, 8.747201762283597], [38.9545410616232, 8.746767592205531]]]}, "properties": {"tile_id": "T0008", "risk": 0.383, "tier": "moderate", "dominant_disease": "septoria", "dominant_risk_driver": "leaf_rust", "model_prob": 0.325, "uncertainty": 0.041, "attention": 0.0613, "needs_expert_review": false, "recommendation": "Intensify monitoring: re-flight within 72 h and scout flagged tiles; watch the 7-day weather forecast for infection windows.", "urgency": "elevated - monitor within 72 h", "rescout_days": 7, "disease_note": "Prioritise lower-canopy lesions; protect the flag leaf at T0/T1 timing."}}, {"type": "Feature", "geometry": {"type": "Polygon", "coordinates": [[[38.95497746733869, 8.746767644337458], [38.95541387305687, 8.746767695966504], [38.95541382141338, 8.747201866049803], [38.95497741518972, 8.747201814418151], [38.95497746733869, 8.746767644337458]]]}, "properties": {"tile_id": "T0009", "risk": 0.388, "tier": "moderate", "dominant_disease": "stripe_rust", "dominant_risk_driver": "leaf_rust", "model_prob": 0.367, "uncertainty": 0.0479, "attention": 0.0804, "needs_expert_review": true, "recommendation": "Intensify monitoring: re-flight within 72 h and scout flagged tiles; watch the 7-day weather forecast for infection windows.", "urgency": "elevated - monitor within 72 h", "rescout_days": 7, "disease_note": "Cool-season favourite: prioritise upper-canopy checking after cool, wet spells."}}, {"type": "Feature", "geometry": {"type": "Polygon", "coordinates": [[[38.95541387305687, 8.746767695966504], [38.95585027877772, 8.746767747092672], [38.95585022763971, 8.747201917178543], [38.95541382141338, 8.747201866049803], [38.95541387305687, 8.746767695966504]]]}, "properties": {"tile_id": "T0010", "risk": 0.501, "tier": "high", "dominant_disease": "stripe_rust", "dominant_risk_driver": "stripe_rust", "model_prob": 0.66, "uncertainty": 0.0649, "attention": 0.6615, "needs_expert_review": false, "recommendation": "Confirmatory scouting within 48 h; prepare the spray plan; re-fly the block in 5-7 days.", "urgency": "urgent - act within 48 h", "rescout_days": 5, "disease_note": "Cool-season favourite: prioritise upper-canopy checking after cool, wet spells."}}, {"type": "Feature", "geometry": {"type": "Polygon", "coordinates": [[[38.95585027877772, 8.746767747092672], [38.956286684501194, 8.746767797715961], [38.956286633868665, 8.747201967804381], [38.95585022763971, 8.747201917178543], [38.95585027877772, 8.746767747092672]]]}, "properties": {"tile_id": "T0011", "risk": 0.409, "tier": "moderate", "dominant_disease": "stripe_rust", "dominant_risk_driver": "septoria", "model_prob": 0.424, "uncertainty": 0.0602, "attention": 0.1063, "needs_expert_review": true, "recommendation": "Intensify monitoring: re-flight within 72 h and scout flagged tiles; watch the 7-day weather forecast for infection windows.", "urgency": "elevated - monitor within 72 h", "rescout_days": 7, "disease_note": "Cool-season favourite: prioritise upper-canopy checking after cool, wet spells."}}, {"type": "Feature", "geometry": {"type": "Polygon", "coordinates": [[[38.954541114274946, 8.74633342211753], [38.95497751948498, 8.74633347424683], [38.95497746733869, 8.746767644337458], [38.9545410616232, 8.746767592205531], [38.954541114274946, 8.74633342211753]]]}, "properties": {"tile_id": "T0012", "risk": 0.368, "tier": "moderate", "dominant_disease": "septoria", "dominant_risk_driver": "septoria", "model_prob": 0.3, "uncertainty": 0.0425, "attention": 0.0328, "needs_expert_review": false, "recommendation": "Intensify monitoring: re-flight within 72 h and scout flagged tiles; watch the 7-day weather forecast for infection windows.", "urgency": "elevated - monitor within 72 h", "rescout_days": 7, "disease_note": "Prioritise lower-canopy lesions; protect the flag leaf at T0/T1 timing."}}, {"type": "Feature", "geometry": {"type": "Polygon", "coordinates": [[[38.95497751948498, 8.74633347424683], [38.95541392469771, 8.746333525873279], [38.95541387305687, 8.746767695966504], [38.95497746733869, 8.746767644337458], [38.95497751948498, 8.74633347424683]]]}, "properties": {"tile_id": "T0013", "risk": 0.381, "tier": "moderate", "dominant_disease": "septoria", "dominant_risk_driver": "septoria", "model_prob": 0.326, "uncertainty": 0.0435, "attention": 0.0397, "needs_expert_review": false, "recommendation": "Intensify monitoring: re-flight within 72 h and scout flagged tiles; watch the 7-day weather forecast for infection windows.", "urgency": "elevated - monitor within 72 h", "rescout_days": 7, "disease_note": "Prioritise lower-canopy lesions; protect the flag leaf at T0/T1 timing."}}, {"type": "Feature", "geometry": {"type": "Polygon", "coordinates": [[[38.95541392469771, 8.746333525873279], [38.95585032991309, 8.746333576996868], [38.95585027877772, 8.746767747092672], [38.95541387305687, 8.746767695966504], [38.95541392469771, 8.746333525873279]]]}, "properties": {"tile_id": "T0014", "risk": 0.418, "tier": "moderate", "dominant_disease": "stripe_rust", "dominant_risk_driver": "septoria", "model_prob": 0.465, "uncertainty": 0.0578, "attention": 0.1322, "needs_expert_review": true, "recommendation": "Intensify monitoring: re-flight within 72 h and scout flagged tiles; watch the 7-day weather forecast for infection windows.", "urgency": "elevated - monitor within 72 h", "rescout_days": 7, "disease_note": "Cool-season favourite: prioritise upper-canopy checking after cool, wet spells."}}, {"type": "Feature", "geometry": {"type": "Polygon", "coordinates": [[[38.95585032991309, 8.746333576996868], [38.956286735131116, 8.746333627617608], [38.956286684501194, 8.746767797715961], [38.95585027877772, 8.746767747092672], [38.95585032991309, 8.746333576996868]]]}, "properties": {"tile_id": "T0015", "risk": 0.387, "tier": "moderate", "dominant_disease": "stripe_rust", "dominant_risk_driver": "septoria", "model_prob": 0.343, "uncertainty": 0.048, "attention": 0.0648, "needs_expert_review": false, "recommendation": "Intensify monitoring: re-flight within 72 h and scout flagged tiles; watch the 7-day weather forecast for infection windows.", "urgency": "elevated - monitor within 72 h", "rescout_days": 7, "disease_note": "Cool-season favourite: prioritise upper-canopy checking after cool, wet spells."}}]}